NORAD_CAT_ID,OBJECT_NAME,OBJECT_TYPE,EPOCH,MEAN_MOTION,ECCENTRICITY,INCLINATION,RA_OF_ASC_NODE,ARG_OF_PERICENTER,MEAN_ANOMALY,BSTAR,MEAN_MOTION_DOT,MEAN_MOTION_DDOT,TLE_LINE0,TLE_LINE1,TLE_LINE2,SEMIMAJOR_AXIS,PERIOD,APOGEE,PERIGEE,DECAYED
54203.0,STARLINK-5247,PAYLOAD,2023-04-26 23:46:10,15.08833444,0.0001222,53.2172,17.2318,52.2591,307.8512,0.00086117,0.00013442,0.0,0 STARLINK-5247,1 54203U 22141AY  23116.99039813  .00013442  00000-0  86117-3 0  9999,2 54203  53.2172  17.2318 0001222  52.2591 307.8512 15.08833444 28061,6917.9,95.438,540.611,538.92,0.0
54203.0,STARLINK-5247,PAYLOAD,2023-04-27 02:56:57,15.08842355,0.0001654,53.2175,16.6367,72.9531,287.1642,0.0010797,0.00016938,0.0,0 STARLINK-5247,1 54203U 22141AY  23117.12288450  .00016938  00000-0  10797-2 0  9991,2 54203  53.2175  16.6367 0001654  72.9531 287.1642 15.08842355 27854,6917.873,95.437,540.882,538.594,0.0
54203.0,STARLINK-5247,PAYLOAD,2023-04-28 02:47:43,15.08870002,0.0001261,53.217,12.1744,68.7249,291.3877,0.0007285,0.00011335,0.0,0 STARLINK-5247,1 54203U 22141AY  23118.11647265  .00011335  00000-0  72850-3 0  9999,2 54203  53.2170  12.1744 0001261  68.7249 291.3877 15.08870002 28232,6917.789,95.436,540.526,538.781,0.0
54203.0,STARLINK-5247,PAYLOAD,2023-04-28 17:06:11,15.08846166,0.0001287,53.2175,9.4982,58.1404,301.9714,-0.00016279,-2.878e-05,0.0,0 STARLINK-5247,1 54203U 22141AY  23118.71263321 -.00002878  00000-0 -16279-3 0  9999,2 54203  53.2175   9.4982 0001287  58.1404 301.9714 15.08846166 28326,6917.862,95.437,540.617,538.836,0.0
54203.0,STARLINK-5247,PAYLOAD,2023-04-28 23:27:43,15.08846054,0.0001264,53.2177,8.3094,73.7651,286.348,-0.00013773,-2.48e-05,0.0,0 STARLINK-5247,1 54203U 22141AY  23118.97759207 -.00002480  00000-0 -13773-3 0  9995,2 54203  53.2177   8.3094 0001264  73.7651 286.3480 15.08846054 28133,6917.862,95.437,540.601,538.852,0.0
54203.0,STARLINK-5247,PAYLOAD,2023-04-29 23:18:30,15.08852345,0.0001163,53.2178,3.8513,79.577,280.5353,0.00013207,1.815e-05,0.0,0 STARLINK-5247,1 54203U 22141AY  23119.97118782  .00001815  00000-0  13207-3 0  9994,2 54203  53.2178   3.8513 0001163  79.5770 280.5353 15.08852345 28511,6917.843,95.437,540.512,538.903,0.0
54203.0,STARLINK-5247,PAYLOAD,2023-04-30 19:58:32,15.08835966,0.0001171,53.2177,359.9854,100.124,259.9884,3.9436e-05,3.4e-06,0.0,0 STARLINK-5247,1 54203U 22141AY  23120.83231545  .00000340  00000-0  39436-4 0  9999,2 54203  53.2177 359.9854 0001171 100.1240 259.9884 15.08835966 28648,6917.893,95.438,540.568,538.948,0.0
54203.0,STARLINK-5247,PAYLOAD,2023-04-30 23:09:18,15.08837158,0.000114,53.2173,359.3903,99.424,260.6881,5.4406e-05,5.78e-06,0.0,0 STARLINK-5247,1 54203U 22141AY  23120.96479523  .00000578  00000-0  54406-4 0  9990,2 54203  53.2173 359.3903 0001140  99.4240 260.6881 15.08837158 28437,6917.889,95.438,540.543,538.965,0.0
54203.0,STARLINK-5247,PAYLOAD,2023-05-01 21:24:42,15.08841707,0.0001244,53.2176,355.2265,106.7121,253.4008,0.00010065,1.314e-05,0.0,0 STARLINK-5247,1 54203U 22141AY  23121.89215424  .00001314  00000-0  10065-3 0  9992,2 54203  53.2176 355.2265 0001244 106.7121 253.4008 15.08841707 28572,6917.875,95.437,540.601,538.88,0.0
54203.0,STARLINK-5247,PAYLOAD,2023-05-02 00:35:28,15.08844204,0.0001175,53.2172,354.631,99.5873,260.5252,0.00017737,2.536e-05,0.0,0 STARLINK-5247,1 54203U 22141AY  23122.02463482  .00002536  00000-0  17737-3 0  9997,2 54203  53.2172 354.6310 0001175  99.5873 260.5252 15.08844204 28821,6917.868,95.437,540.545,538.92,0.0
54203.0,STARLINK-5247,PAYLOAD,2023-05-02 21:15:29,15.08849734,0.0001341,53.2172,350.7657,110.8857,249.2279,0.0001463,2.042e-05,0.0,0 STARLINK-5247,1 54203U 22141AY  23122.88575267  .00002042  00000-0  14630-3 0  9997,2 54203  53.2172 350.7657 0001341 110.8857 249.2279 15.08849734 28721,6917.851,95.437,540.643,538.788,0.0
54203.0,STARLINK-5247,PAYLOAD,2023-05-03 02:01:38,15.08853833,0.0001161,53.2174,349.874,97.6585,262.4538,0.00036689,5.558e-05,0.0,0 STARLINK-5247,1 54203U 22141AY  23123.08447123  .00005558  00000-0  36689-3 0  9992,2 54203  53.2174 349.8740 0001161  97.6585 262.4538 15.08853833 28983,6917.838,95.437,540.506,538.9,0.0
54203.0,STARLINK-5247,PAYLOAD,2023-05-03 08:23:11,15.08832378,0.0001333,53.2171,348.6848,95.3087,264.8057,-5.975e-05,-1.238e-05,0.0,0 STARLINK-5247,1 54203U 22141AY  23123.34944061 -.00001238  00000-0 -59750-4 0  9992,2 54203  53.2171 348.6848 0001333  95.3087 264.8057 15.08832378 29028,6917.904,95.438,540.691,538.847,0.0
54203.0,STARLINK-5247,PAYLOAD,2023-05-03 21:06:16,15.08835319,0.0001195,53.2172,346.3074,81.1243,278.9885,1.2664e-05,-8.6e-07,0.0,0 STARLINK-5247,1 54203U 22141AY  23123.87936144 -.00000086  00000-0  12664-4 0  9995,2 54203  53.2172 346.3074 0001195  81.1243 278.9885 15.08835319 28873,6917.895,95.438,540.586,538.933,0.0
54203.0,STARLINK-5247,PAYLOAD,2023-05-04 08:13:58,15.08839619,0.0001306,53.2174,344.2246,76.8272,283.2866,0.00016901,2.403e-05,0.0,0 STARLINK-5247,1 54203U 22141AY  23124.34304163  .00002403  00000-0  16901-3 0  9999,2 54203  53.2174 344.2246 0001306  76.8272 283.2866 15.08839619 28943,6917.882,95.438,540.65,538.843,0.0
54203.0,STARLINK-5247,PAYLOAD,2023-05-04 20:57:03,15.08852884,0.0001091,53.2165,341.8451,81.9207,278.1908,0.00070914,0.0001102,0.0,0 STARLINK-5247,1 54203U 22141AY  23124.87295914  .00011020  00000-0  70914-3 0  9999,2 54203  53.2165 341.8451 0001091  81.9207 278.1908 15.08852884 29254,6917.841,95.437,540.461,538.951,0.0
54203.0,STARLINK-5247,PAYLOAD,2023-05-05 20:47:50,15.08852487,0.0001096,53.2163,337.3843,86.9508,273.161,0.00047882,7.343e-05,0.0,0 STARLINK-5247,1 54203U 22141AY  23125.86655599  .00007343  00000-0  47882-3 0  9999,2 54203  53.2163 337.3843 0001096  86.9508 273.1610 15.08852487 29402,6917.842,95.437,540.465,538.949,0.0
54203.0,STARLINK-5247,PAYLOAD,2023-05-06 01:33:59,15.08858222,0.0001151,53.2163,336.4923,88.5146,271.5978,0.00071783,0.0001116,0.0,0 STARLINK-5247,1 54203U 22141AY  23126.06527413  .00011160  00000-0  71783-3 0  9994,2 54203  53.2163 336.4923 0001151  88.5146 271.5978 15.08858222 29209,6917.825,95.436,540.486,538.893,0.0
54203.0,STARLINK-5247,PAYLOAD,2023-05-06 23:49:23,15.08851559,0.0001046,53.2171,332.3288,96.5586,263.5525,0.000784,0.00012215,0.0,0 STARLINK-5247,1 54203U 22141AY  23126.99263611  .00012215  00000-0  78400-3 0  9998,2 54203  53.2171 332.3288 0001046  96.5586 263.5525 15.08851559 29572,6917.845,95.437,540.434,538.986,0.0
54203.0,STARLINK-5247,PAYLOAD,2023-05-07 06:10:56,15.0885894,0.0001056,53.2167,331.1399,101.3164,258.7947,0.00092883,0.00014533,0.0,0 STARLINK-5247,1 54203U 22141AY  23127.25759316  .00014533  00000-0  92883-3 0  9996,2 54203  53.2167 331.1399 0001056 101.3164 258.7947 15.08858940 29389,6917.822,95.436,540.418,538.957,0.0
54203.0,STARLINK-5247,PAYLOAD,2023-05-07 18:54:02,15.0883648,0.0001012,53.2166,328.7604,90.1269,269.984,0.00074627,0.00011608,0.0,0 STARLINK-5247,1 54203U 22141AY  23127.78752402  .00011608  00000-0  74627-3 0  9999,2 54203  53.2166 328.7604 0001012  90.1269 269.9840 15.08836480 29697,6917.891,95.438,540.456,539.056,0.0
54203.0,STARLINK-5247,PAYLOAD,2023-05-07 20:29:25,15.08835302,0.0001007,53.2166,328.4635,89.4663,270.6444,0.00072103,0.00011204,0.0,0 STARLINK-5247,1 54203U 22141AY  23127.85376434  .00011204  00000-0  72103-3 0  9993,2 54203  53.2166 328.4635 0001007  89.4663 270.6444 15.08835302 29478,6917.895,95.438,540.456,539.063,0.0
54203.0,STARLINK-5247,PAYLOAD,2023-05-08 06:01:44,15.0883684,9.21e-05,53.2165,326.6789,83.2973,276.8124,0.0004299,6.56e-05,0.0,0 STARLINK-5247,1 54203U 22141AY  23128.25120545  .00006560  00000-0  42990-3 0  9998,2 54203  53.2165 326.6789 0000921  83.2973 276.8124 15.08836840 29760,6917.89,95.438,540.392,539.118,0.0
54203.0,STARLINK-5247,PAYLOAD,2023-05-08 20:20:12,15.08850501,9.16e-05,53.2158,324.0038,93.4507,266.6589,0.00062159,9.621e-05,0.0,0 STARLINK-5247,1 54203U 22141AY  23128.84736316  .00009621  00000-0  62159-3 0  9992,2 54203  53.2158 324.0038 0000916  93.4507 266.6589 15.08850501 29628,6917.848,95.437,540.347,539.08,0.0
54203.0,STARLINK-5247,PAYLOAD,2023-05-08 23:30:58,15.08860008,9.98e-05,53.216,323.4079,83.1134,276.9972,0.00083044,0.0001296,0.0,0 STARLINK-5247,1 54203U 22141AY  23128.97984058  .00012960  00000-0  83044-3 0  9990,2 54203  53.2160 323.4079 0000998  83.1134 276.9972 15.08860008 29871,6917.819,95.436,540.375,538.994,0.0
54203.0,STARLINK-5247,PAYLOAD,2023-05-09 05:52:31,15.08843341,0.0001489,53.2161,322.218,91.2656,268.8507,0.00029418,4.397e-05,0.0,0 STARLINK-5247,1 54203U 22141AY  23129.24480508  .00004397  00000-0  29418-3 0  9992,2 54203  53.2161 322.2180 0001489  91.2656 268.8507 15.08843341 29917,6917.87,95.437,540.765,538.705,0.0
54203.0,STARLINK-5247,PAYLOAD,2023-05-10 05:43:18,15.08840038,0.0001061,53.2156,317.7568,79.6107,280.5005,0.00020584,2.99e-05,0.0,0 STARLINK-5247,1 54203U 22141AY  23130.23840366  .00002990  00000-0  20584-3 0  9997,2 54203  53.2156 317.7568 0001061  79.6107 280.5005 15.08840038 29832,6917.88,95.438,540.479,539.011,0.0
54203.0,STARLINK-5247,PAYLOAD,2023-05-10 18:26:23,15.08838708,8.79e-05,53.2157,315.3789,80.8241,279.2851,0.00020215,2.931e-05,0.0,0 STARLINK-5247,1 54203U 22141AY  23130.76832584  .00002931  00000-0  20215-3 0  9994,2 54203  53.2157 315.3789 0000879  80.8241 279.2851 15.08838708 29915,6917.884,95.438,540.357,539.141,0.0
54203.0,STARLINK-5247,PAYLOAD,2023-05-11 05:34:05,15.08836779,8.77e-05,53.2161,313.2975,88.011,272.0983,0.00011636,1.564e-05,0.0,0 STARLINK-5247,1 54203U 22141AY  23131.23200702  .00001564  00000-0  11636-3 0  9996,2 54203  53.2161 313.2975 0000877  88.0110 272.0983 15.08836779 30215,6917.89,95.438,540.362,539.149,0.0
54203.0,STARLINK-5247,PAYLOAD,2023-05-11 18:17:10,15.08840847,9.48e-05,53.2159,310.9185,80.7157,279.3942,0.00021564,3.146e-05,0.0,0 STARLINK-5247,1 54203U 22141AY  23131.76192884  .00003146  00000-0  21564-3 0  9994,2 54203  53.2159 310.9185 0000948  80.7157 279.3942 15.08840847 30067,6917.878,95.438,540.399,539.087,0.0
